$$SOE
2459580.500000000, A.D. 2022-Jan-01 00:00:00.0000, -8.968354017170261E+07, 2.611129108122144E+08, 4.707005643699317E+07,
2459587.500000000, A.D. 2022-Jan-08 00:00:00.0000, -1.026549221015706E+08, 2.581429778320287E+08, 4.459263584410006E+07,
2459594.500000000, A.D. 2022-Jan-15 00:00:00.0000, -1.154027123026864E+08, 2.546105060419849E+08, 4.201802932084022E+07,
2459601.500000000, A.D. 2022-Jan-22 00:00:00.0000, -1.279026377318280E+08, 2.505309314027800E+08, 3.935312417615440E+07,
2459608.500000000, A.D. 2022-Jan-29 00:00:00.0000, -1.401317270030046E+08, 2.459206410749764E+08, 3.660484338884188E+07,
2459615.500000000, A.D. 2022-Feb-05 00:00:00.0000, -1.520683258658923E+08, 2.407968662314672E+08, 3.378011957034624E+07,
2459622.500000000, A.D. 2022-Feb-12 00:00:00.0000, -1.636921017142890E+08, 2.351775774093560E+08, 3.088587069667785E+07,
2459629.500000000, A.D. 2022-Feb-19 00:00:00.0000, -1.749840393428676E+08, 2.290813854119264E+08, 2.792897796294661E+07,
2459636.500000000, A.D. 2022-Feb-26 00:00:00.0000, -1.859264301215655E+08, 2.225274475518734E+08, 2.491626581517009E+07,
2459643.500000000, A.D. 2022-Mar-05 00:00:00.0000, -1.965028552621880E+08, 2.155353789807426E+08, 2.185448405093403E+07,
2459650.500000000, A.D. 2022-Mar-12 00:00:00.0000, -2.066981637715043E+08, 2.081251692783279E+08, 1.875029189650220E+07,
2459657.500000000, A.D. 2022-Mar-19 00:00:00.0000, -2.164984458066514E+08, 2.003171044695732E+08, 1.561024397353718E+07,
2459664.500000000, A.D. 2022-Mar-26 00:00:00.0000, -2.258910021577027E+08, 1.921316945173607E+08, 1.244077805879551E+07,
2459671.500000000, A.D. 2022-Apr-02 00:00:00.0000, -2.348643104896656E+08, 1.835896062170343E+08, 9.248204523562439E+06,
2459678.500000000, A.D. 2022-Apr-09 00:00:00.0000, -2.434079887195255E+08, 1.747116014174894E+08, 6.038697319991052E+06,
2459685.500000000, A.D. 2022-Apr-16 00:00:00.0000, -2.515127557638949E+08, 1.655184810907011E+08, 2.818286423188284E+06,
2459692.500000000, A.D. 2022-Apr-23 00:00:00.0000, -2.591703914660099E+08, 1.560310361593078E+08, -4.071481795434952E+05,
2459699.500000000, A.D. 2022-Apr-30 00:00:00.0000, -2.663736980624790E+08, 1.462700026342871E+08, -3.631881078630298E+06,
2459706.500000000, A.D. 2022-May-07 00:00:00.0000, -2.731164605534680E+08, 1.362560188651892E+08, -6.850345166370399E+06,
2459713.500000000, A.D. 2022-May-14 00:00:00.0000, -2.793934049498091E+08, 1.260095876840138E+08, -1.005713448217017E+07,
2459720.500000000, A.D. 2022-May-21 00:00:00.0000, -2.852001567605420E+08, 1.155510439291768E+08, -1.324700603517771E+07,
2459727.500000000, A.D. 2022-May-28 00:00:00.0000, -2.905332004922037E+08, 1.049005261256402E+08, -1.641488074061005E+07,
2459734.500000000, A.D. 2022-Jun-04 00:00:00.0000, -2.953898401226711E+08, 9.407795174047297E+07, -1.955584361657899E+07,
2459741.500000000, A.D. 2022-Jun-11 00:00:00.0000, -2.997681606039376E+08, 8.310299574460861E+07, -2.266514334399208E+07,
2459748.500000000, A.D. 2022-Jun-18 00:00:00.0000, -3.036669905207098E+08, 7.199507222635636E+07, -2.573819127564605E+07,
2459755.500000000, A.D. 2022-Jun-25 00:00:00.0000, -3.070858660100899E+08, 6.077331876325406E+07, -2.877055997771668E+07,
2459762.500000000, A.D. 2022-Jul-02 00:00:00.0000, -3.100249959146882E+08, 4.945658323555133E+07, -3.175798139315716E+07,
2459769.500000000, A.D. 2022-Jul-09 00:00:00.0000, -3.124852278595845E+08, 3.806341301773965E+07, -3.469634471419297E+07,
2459776.500000000, A.D. 2022-Jul-16 00:00:00.0000, -3.144680153659784E+08, 2.661204740110727E+07, -3.758169393026431E+07,
2459783.500000000, A.D. 2022-Jul-23 00:00:00.0000, -3.159753882396624E+08, 1.512041310551010E+07, -4.041022489822515E+07,
2459790.500000000, A.D. 2022-Jul-30 00:00:00.0000, -3.170099261789430E+08, 3.606119320116077E+06, -4.317828226800689E+07,
2459797.500000000, A.D. 2022-Aug-06 00:00:00.0000, -3.175747320157638E+08, -7.913547266920943E+06, -4.588235658708856E+07,
2459804.500000000, A.D. 2022-Aug-13 00:00:00.0000, -3.176734054024805E+08, -1.942162487218150E+07, -4.851908132113255E+07,
2459811.500000000, A.D. 2022-Aug-20 00:00:00.0000, -3.173100184944057E+08, -3.090147713015153E+07, -5.108522972209177E+07,
2459818.500000000, A.D. 2022-Aug-27 00:00:00.0000, -3.164890935419734E+08, -4.233679260281101E+07, -5.357771164318579E+07,
2459825.500000000, A.D. 2022-Sep-03 00:00:00.0000, -3.152155821199771E+08, -5.371158354026849E+07, -5.599357036300803E+07,
2459832.500000000, A.D. 2022-Sep-10 00:00:00.0000, -3.134948458698400E+08, -6.501018400146044E+07, -5.832997945107903E+07,
2459839.500000000, A.D. 2022-Sep-17 00:00:00.0000, -3.113326386863227E+08, -7.621724746103296E+07, -6.058423970070842E+07,
2459846.500000000, A.D. 2022-Sep-24 00:00:00.0000, -3.087350902467172E+08, -8.731774406873745E+07, -6.275377615995584E+07,
2459853.500000000, A.D. 2022-Oct-01 00:00:00.0000, -3.057086905996636E+08, -9.829695768944696E+07, -6.483613530390824E+07,
2459860.500000000, A.D. 2022-Oct-08 00:00:00.0000, -3.022602753616410E+08, -1.091404822970737E+08, -6.682898236007137E+07,
2459867.500000000, A.D. 2022-Oct-15 00:00:00.0000, -2.983970124046587E+08, -1.198342166081352E+08, -6.873009861685681E+07,
2459874.500000000, A.D. 2022-Oct-22 00:00:00.0000, -2.941263921641802E+08, -1.303643587168355E+08, -7.053737866198727E+07,
2459881.500000000, A.D. 2022-Oct-29 00:00:00.0000, -2.894562190162268E+08, -1.407174034004201E+08, -7.224882799888936E+07,
2459888.500000000, A.D. 2022-Nov-05 00:00:00.0000, -2.843946015714732E+08, -1.508801394264643E+08, -7.386256101570515E+07,
2459895.500000000, A.D. 2022-Nov-12 00:00:00.0000, -2.789499437987812E+08, -1.608396456652210E+08, -7.537679902988030E+07,
2459902.500000000, A.D. 2022-Nov-19 00:00:00.0000, -2.731309376498012E+08, -1.705832870289662E+08, -7.678986843001129E+07,
2459909.500000000, A.D. 2022-Nov-26 00:00:00.0000, -2.669465568811327E+08, -1.800987106980866E+08, -7.810019898357409E+07,
2459916.500000000, A.D. 2022-Dec-03 00:00:00.0000, -2.604060518696340E+08, -1.893738426995256E+08, -7.930632233757132E+07,
2459923.500000000, A.D. 2022-Dec-10 00:00:00.0000, -2.535189453346106E+08, -1.983968848661163E+08, -8.040687072161719E+07,
2459930.500000000, A.D. 2022-Dec-17 00:00:00.0000, -2.462950288979096E+08, -2.071563122463758E+08, -8.140057586149235E+07,
2459937.500000000, A.D. 2022-Dec-24 00:00:00.0000, -2.387443603270287E+08, -2.156408710748504E+08, -8.228626812130362E+07,
2459944.500000000, A.D. 2022-Dec-31 00:00:00.0000, -2.308772610587601E+08, -2.238395772393598E+08, -8.306287590107323E+07,
2459951.500000000, A.D. 2023-Jan-07 00:00:00.0000, -2.227043138366541E+08, -2.317417143253127E+08, -8.372942522517011E+07,
2459958.500000000, A.D. 2023-Jan-14 00:00:00.0000, -2.142363623848588E+08, -2.393368307812774E+08, -8.428503930292974E+07,
2459965.500000000, A.D. 2023-Jan-21 00:00:00.0000, -2.054845137183533E+08, -2.466147394202963E+08, -8.472893826458985E+07,
2459972.500000000, A.D. 2023-Jan-28 00:00:00.0000, -1.964601393797536E+08, -2.535655194964742E+08, -8.506043942981426E+07,
2459979.500000000, A.D. 2023-Feb-04 00:00:00.0000, -1.871748757711276E+08, -2.601795183714474E+08, -8.527895784690969E+07,
2459986.500000000, A.D. 2023-Feb-11 00:00:00.0000, -1.776406253339792E+08, -2.664473530036956E+08, -8.538400695676889E+07,
2459993.500000000, A.D. 2023-Feb-18 00:00:00.0000, -1.678695585957460E+08, -2.723599121222121E+08, -8.537519944462334E+07,
2460000.500000000, A.D. 2023-Feb-25 00:00:00.0000, -1.578741167720274E+08, -2.779083592857943E+08, -8.525224831840591E+07,
2460007.500000000, A.D. 2023-Mar-04 00:00:00.0000, -1.476670147726629E+08, -2.830841368515408E+08, -8.501496822436504E+07,
2460014.500000000, A.D. 2023-Mar-11 00:00:00.0000, -1.372612445334252E+08, -2.878789708963980E+08, -8.466327700643568E+07,
2460021.500000000, A.D. 2023-Mar-18 00:00:00.0000, -1.266700785756351E+08, -2.922848771853852E+08, -8.419719752115612E+07,
2460028.500000000, A.D. 2023-Mar-25 00:00:00.0000, -1.159070735364914E+08, -2.962941682774427E+08, -8.361685973295462E+07,
2460035.500000000, A.D. 2023-Apr-01 00:00:00.0000, -1.049860731876590E+08, -2.998994614196385E+08, -8.292250309822139E+07,
2460042.500000000, A.D. 2023-Apr-08 00:00:00.0000, -9.392121149538460E+07, -3.030936860488535E+08, -8.211447908250767E+07,
2460049.500000000, A.D. 2023-Apr-15 00:00:00.0000, -8.272691799138238E+07, -3.058700920502571E+08, -8.119325368673812E+07,
2460056.500000000, A.D. 2023-Apr-22 00:00:00.0000, -7.141792357109101E+07, -3.082222618694134E+08, -8.015941039788297E+07,
2460063.500000000, A.D. 2023-Apr-29 00:00:00.0000, -6.000926390602385E+07, -3.101441242738450E+08, -7.901365363199332E+07,
2460070.500000000, A.D. 2023-May-06 00:00:00.0000, -4.851628214772025E+07, -3.116299680310969E+08, -7.775681236274892E+07,
2460077.500000000, A.D. 2023-May-13 00:00:00.0000, -3.695463181029826E+07, -3.126744564426721E+08, -7.638984391731080E+07,
2460084.500000000, A.D. 2023-May-20 00:00:00.0000, -2.534027950011633E+07, -3.132726432689857E+08, -7.491383799791443E+07,
2460091.500000000, A.D. 2023-May-27 00:00:00.0000, -1.368950719349873E+07, -3.134199901160930E+08, -7.333002094428070E+07,
2460098.500000000, A.D. 2023-Jun-03 00:00:00.0000, -2.018913889183540E+06, -3.131123852964770E+08, -7.163976023317848E+07,
2460105.500000000, A.D. 2023-Jun-10 00:00:00.0000, 9.654583514699506E+06, -3.123461642147828E+08, -6.984456921079759E+07,
2460112.500000000, A.D. 2023-Jun-17 00:00:00.0000, 2.131375034303082E+07, -3.111181313746366E+08, -6.794611206195825E+07,
2460119.500000000, A.D. 2023-Jun-24 00:00:00.0000, 3.294103572825504E+07, -3.094255839818786E+08, -6.594620902817211E+07,
2460126.500000000, A.D. 2023-Jul-01 00:00:00.0000, 4.451857606330118E+07, -3.072663363382925E+08, -6.384684181213535E+07,
2460133.500000000, A.D. 2023-Jul-08 00:00:00.0000, 5.602819881393641E+07, -3.046387442147414E+08, -6.165015892452207E+07,
2460140.500000000, A.D. 2023-Jul-15 00:00:00.0000, 6.745142559199539E+07, -3.015417320305766E+08, -5.935848105849080E+07,
$$EOE